NAVSTAR 43 (USA 132)    
1 24876U 97035A   26064.99563355  .00000005  00000+0  00000+0 0  9997
2 24876  55.9363 102.6088 0097986  56.2572 304.7464  2.00563997209887
NAVSTAR 48 (USA 151)    
1 26407U 00040A   26064.82741474  .00000014  00000+0  00000+0 0  9991
2 26407  54.8752 219.2651 0122665 302.5335 230.2027  2.00568964187878
NAVSTAR 51 (USA 166)    
1 27663U 03005A   26064.41514012  .00000009  00000+0  00000+0 0  9995
2 27663  54.9071 219.0894 0148737  52.7243 318.2187  2.00566237169230
NAVSTAR 54 (USA 177)    
1 28190U 04009A   26064.93315625 -.00000023  00000+0  00000+0 0  9999
2 28190  54.9146 279.8578 0111025 169.1048  11.7386  2.00558087160879
NAVSTAR 56 (USA 180)    
1 28474U 04045A   26064.34269096 -.00000094  00000+0  00000+0 0  9997
2 28474  55.1942 329.0814 0170827 312.8671 225.0992  2.00573478156347
NAVSTAR 57 (USA 183)    
1 28874U 05038A   26064.65960726 -.00000020  00000+0  00000+0 0  9995
2 28874  54.9620 277.3543 0128771 295.3628  71.8248  2.00572953149769
NAVSTAR 58 (USA 190)    
1 29486U 06042A   26064.99790035  .00000010  00000+0  00000+0 0  9990
2 29486  54.6979 155.4369 0106710  52.9060  95.5711  2.00575318142322
NAVSTAR 59 (USA 192)    
1 29601U 06052A   26064.21100884  .00000007  00000+0  00000+0 0  9998
2 29601  54.9569 218.1252 0087858  89.3737 271.5836  2.00551710141326
NAVSTAR 60 (USA 196)    
1 32260U 07047A   26064.01919554 -.00000008  00000+0  00000+0 0  9990
2 32260  54.0162  84.3580 0163608  85.9640 275.9610  2.00560713134728
NAVSTAR 61 (USA 199)    
1 32384U 07062A   26064.33725213 -.00000021  00000+0  00000+0 0  9991
2 32384  55.1141 278.3260 0032949 160.6805 197.0086  2.00553612133428
NAVSTAR 62 (USA 201)    
1 32711U 08012A   26064.43600902  .00000009  00000+0  00000+0 0  9994
2 32711  54.4824 154.0710 0207038 246.2040 111.6495  2.00569259131672
NAVSTAR 64 (USA 206)    
1 35752U 09043A   26064.92604280 -.00000085  00000+0  00000+0 0  9999
2 35752  56.1493  31.5078 0051733  80.7031 288.9973  2.00560385121294
NAVSTAR 65 (USA 213)    
1 36585U 10022A   26064.75428881  .00000012  00000+0  00000+0 0  9994
2 36585  54.2886 212.7266 0127338  65.8860 296.5732  2.00557356115526
NAVSTAR 67 (USA 239)    
1 38833U 12053A   26064.11552350  .00000009  00000+0  00000+0 0  9993
2 38833  53.5659 147.8643 0176939  64.7787 297.0919  2.00565848 97356
NAVSTAR 68 (USA 242)    
1 39166U 13023A   26063.98037619 -.00000016  00000+0  00000+0 0  9990
2 39166  54.5857 273.2171 0141620  49.9246 311.3385  2.00564217 93791
NAVSTAR 69 (USA 248)    
1 39533U 14008A   26064.47751616  .00000008  00000+0  00000+0 0  9997
2 39533  53.6378 153.5513 0082337 228.3363 130.9939  2.00553167 87604
NAVSTAR 70 (USA 251)    
1 39741U 14026A   26064.75554898 -.00000099  00000+0  00000+0 0  9993
2 39741  56.5458 335.5470 0039849 324.6009  35.1717  2.00568639 86460
